{"type": "FeatureCollection", "features": [ {"type": "Feature", "properties": {"norad_id": 67080, "name": "STARLINK-36158", "group": "last-30-days", "lat": 18.096192620616975, "lon": 37.08011175828699, "alt_km": 305.9514169439317, "timestamp": "2025-12-21T22:41:40.168460+00:00", "meta": {"OBJECT_NAME": "STARLINK-36158", "OBJECT_ID": "2025-298F", "EPOCH": "2025-12-21T14:00:01.999872", "MEAN_MOTION": 15.88762063, "ECCENTRICITY": 0.00043768, "INCLINATION": 69.998, "RA_OF_ASC_NODE": 224.9635, "ARG_OF_PERICENTER": 264.9119, "MEAN_ANOMALY": 344.3866, "EPHEMERIS_TYPE": 0, "CLASSIFICATION_TYPE": "U", "NORAD_CAT_ID": 67080, "ELEMENT_SET_NO": 999, "REV_AT_EPOCH": 234, "BSTAR": 0.00063592122, "MEAN_MOTION_DOT": 0.00182984, "MEAN_MOTION_DDOT": 0}, "tle": {"line1": "1 67080U 25298F   25355.58335648  .00182984  00000+0  63592-3 0  9998", "line2": "2 67080  69.9980 224.9635 0004376 264.9119 344.3866 15.88762063  2346"}}, "geometry": {"type": "Point", "coordinates": [37.08011175828699, 18.096192620616975]}}, {"type": "Feature", "properties": {"norad_id": 67081, "name": "STARLINK-35864", "group": "last-30-days", "lat": 16.44410691923673, "lon": 37.74233065926545, "alt_km": 305.93923790878307, "timestamp": "2025-12-21T22:41:40.168469+00:00", "meta": {"OBJECT_NAME": "STARLINK-35864", "OBJECT_ID": "2025-298G", "EPOCH": "2025-12-21T14:00:01.999872", "MEAN_MOTION": 15.88818617, "ECCENTRICITY": 0.00043365, "INCLINATION": 69.9982, "RA_OF_ASC_NODE": 224.9614, "ARG_OF_PERICENTER": 264.4735, "MEAN_ANOMALY": 346.52, "EPHEMERIS_TYPE": 0, "CLASSIFICATION_TYPE": "U", "NORAD_CAT_ID": 67081, "ELEMENT_SET_NO": 999, "REV_AT_EPOCH": 240, "BSTAR": 0.00063048549, "MEAN_MOTION_DOT": 0.00181905, "MEAN_MOTION_DDOT": 0}, "tle": {"line1": "1 67081U 25298G   25355.58335648  .00181905  00000+0  63049-3 0  9998", "line2": "2 67081  69.9982 224.9614 0004336 264.4735 346.5200 15.88818617  2401"}}, "geometry": {"type": "Point", "coordinates": [37.74233065926545, 16.44410691923673]}}, {"type": "Feature", "properties": {"norad_id": 67082, "name": "STARLINK-36035", "group": "last-30-days", "lat": 14.684181429641306, "lon": 38.43465075028174, "alt_km": 306.00719023154033, "timestamp": "2025-12-21T22:41:40.168481+00:00", "meta": {"OBJECT_NAME": "STARLINK-36035", "OBJECT_ID": "2025-298H", "EPOCH": "2025-12-21T14:00:01.999872", "MEAN_MOTION": 15.88860571, "ECCENTRICITY": 0.00042631, "INCLINATION": 69.9982, "RA_OF_ASC_NODE": 224.9593, "ARG_OF_PERICENTER": 265.1674, "MEAN_ANOMALY": 347.6476, "EPHEMERIS_TYPE": 0, "CLASSIFICATION_TYPE": "U", "NORAD_CAT_ID": 67082, "ELEMENT_SET_NO": 999, "REV_AT_EPOCH": 240, "BSTAR": 0.00066279046, "MEAN_MOTION_DOT": 0.00191848, "MEAN_MOTION_DDOT": 0}, "tle": {"line1": "1 67082U 25298H   25355.58335648  .00191848  00000+0  66279-3 0  9994", "line2": "2 67082  69.9982 224.9593 0004263 265.1674 347.6476 15.88860571  2400"}}, "geometry": {"type": "Point", "coordinates": [38.43465075028174, 14.684181429641306]}}, {"type": "Feature", "properties": {"norad_id": 67083, "name": "STARLINK-36170", "group": "last-30-days", "lat": 12.83831005538767, "lon": 39.14797222029962, "alt_km": 305.96551194912354, "timestamp": "2025-12-21T22:41:40.168493+00:00", "meta": {"OBJECT_NAME": "STARLINK-36170", "OBJECT_ID": "2025-298J", "EPOCH": "2025-12-21T14:00:01.999872", "MEAN_MOTION": 15.88911699, "ECCENTRICITY": 0.00042694, "INCLINATION": 69.998, "RA_OF_ASC_NODE": 224.9571, "ARG_OF_PERICENTER": 263.8995, "MEAN_ANOMALY": 350.8152, "EPHEMERIS_TYPE": 0, "CLASSIFICATION_TYPE": "U", "NORAD_CAT_ID": 67083, "ELEMENT_SET_NO": 999, "REV_AT_EPOCH": 240, "BSTAR": 0.00069897812, "MEAN_MOTION_DOT": 0.00203109, "MEAN_MOTION_DDOT": 0}, "tle": {"line1": "1 67083U 25298J   25355.58335648  .00203109  00000+0  69898-3 0  9999", "line2": "2 67083  69.9980 224.9571 0004269 263.8995 350.8152 15.88911699  2407"}}, "geometry": {"type": "Point", "coordinates": [39.14797222029962, 12.83831005538767]}}, {"type": "Feature", "properties": {"norad_id": 67084, "name": "STARLINK-36166", "group": "last-30-days", "lat": 11.11356324686555, "lon": 39.80408052317892, "alt_km": 306.0903649721822, "timestamp": "2025-12-21T22:41:40.168503+00:00", "meta": {"OBJECT_NAME": "STARLINK-36166", "OBJECT_ID": "2025-298K", "EPOCH": "2025-12-21T14:00:01.999872", "MEAN_MOTION": 15.88970653, "ECCENTRICITY": 0.00042741, "INCLINATION": 69.998, "RA_OF_ASC_NODE": 224.9547, "ARG_OF_PERICENTER": 265.5409, "MEAN_ANOMALY": 350.946, "EPHEMERIS_TYPE": 0, "CLASSIFICATION_TYPE": "U", "NORAD_CAT_ID": 67084, "ELEMENT_SET_NO": 999, "REV_AT_EPOCH": 234, "BSTAR": 0.00062999583, "MEAN_MOTION_DOT": 0.00183169, "MEAN_MOTION_DDOT": 0}, "tle": {"line1": "1 67084U 25298K   25355.58335648  .00183169  00000+0  63000-3 0  9992", "line2": "2 67084  69.9980 224.9547 0004274 265.5409 350.9460 15.88970653  2347"}}, "geometry": {"type": "Point", "coordinates": [39.80408052317892, 11.11356324686555]}}, {"type": "Feature", "properties": {"norad_id": 67085, "name": "STARLINK-35794", "group": "last-30-days", "lat": 9.422847039764267, "lon": 40.439459807284514, "alt_km": 306.10893953092454, "timestamp": "2025-12-21T22:41:40.168515+00:00", "meta": {"OBJECT_NAME": "STARLINK-35794", "OBJECT_ID": "2025-298L", "EPOCH": "2025-12-21T14:00:01.999872", "MEAN_MOTION": 15.89013608, "ECCENTRICITY": 0.00043834, "INCLINATION": 69.998, "RA_OF_ASC_NODE": 224.9526, "ARG_OF_PERICENTER": 265.2678, "MEAN_ANOMALY": 352.9634, "EPHEMERIS_TYPE": 0, "CLASSIFICATION_TYPE": "U", "NORAD_CAT_ID": 67085, "ELEMENT_SET_NO": 999, "REV_AT_EPOCH": 240, "BSTAR": 0.00065373284, "MEAN_MOTION_DOT": 0.00185703, "MEAN_MOTION_DDOT": 1.6145544e-05}, "tle": {"line1": "1 67085U 25298L   25355.58335648  .00185703  16146-4  65373-3 0  9997", "line2": "2 67085  69.9980 224.9526 0004383 265.2678 352.9634 15.89013608  2402"}}, "geometry": {"type": "Point", "coordinates": [40.439459807284514, 9.422847039764267]}}, {"type": "Feature", "properties": {"norad_id": 67086, "name": "STARLINK-35841", "group": "last-30-days", "lat": 7.462447038123679, "lon": 41.1679739792247, "alt_km": 306.05845966508787, "timestamp": "2025-12-21T22:41:40.168526+00:00", "meta": {"OBJECT_NAME": "STARLINK-35841", "OBJECT_ID": "2025-298M", "EPOCH": "2025-12-21T14:00:01.999872", "MEAN_MOTION": 15.89067921, "ECCENTRICITY": 0.00042025, "INCLINATION": 69.9979, "RA_OF_ASC_NODE": 224.9502, "ARG_OF_PERICENTER": 263.7271, "MEAN_ANOMALY": 356.5206, "EPHEMERIS_TYPE": 0, "CLASSIFICATION_TYPE": "U", "NORAD_CAT_ID": 67086, "ELEMENT_SET_NO": 999, "REV_AT_EPOCH": 240, "BSTAR": 0.00064591416, "MEAN_MOTION_DOT": 0.00183957, "MEAN_MOTION_DDOT": 1.5921967e-05}, "tle": {"line1": "1 67086U 25298M   25355.58335648  .00183957  15922-4  64591-3 0  9999", "line2": "2 67086  69.9979 224.9502 0004202 263.7271 356.5206 15.89067921  2409"}}, "geometry": {"type": "Point", "coordinates": [41.1679739792247, 7.462447038123679]}}, {"type": "Feature", "properties": {"norad_id": 67087, "name": "STARLINK-35842", "group": "last-30-days", "lat": 5.95841039329307, "lon": 41.722006514902354, "alt_km": 306.0700889713462, "timestamp": "2025-12-21T22:41:40.168536+00:00", "meta": {"OBJECT_NAME": "STARLINK-35842", "OBJECT_ID": "2025-298N", "EPOCH": "2025-12-21T14:00:01.999872", "MEAN_MOTION": 15.89116847, "ECCENTRICITY": 0.00042537, "INCLINATION": 69.9978, "RA_OF_ASC_NODE": 224.9483, "ARG_OF_PERICENTER": 263.8849, "MEAN_ANOMALY": 357.9022, "EPHEMERIS_TYPE": 0, "CLASSIFICATION_TYPE": "U", "NORAD_CAT_ID": 67087, "ELEMENT_SET_NO": 999, "REV_AT_EPOCH": 240, "BSTAR": 0.00063592988, "MEAN_MOTION_DOT": 0.00181545, "MEAN_MOTION_DDOT": 1.5612711e-05}, "tle": {"line1": "1 67087U 25298N   25355.58335648  .00181545  15613-4  63593-3 0  9999", "line2": "2 67087  69.9978 224.9483 0004253 263.8849 357.9022 15.89116847  2408"}}, "geometry": {"type": "Point", "coordinates": [41.722006514902354, 5.95841039329307]}}, {"type": "Feature", "properties": {"norad_id": 67088, "name": "STARLINK-35882", "group": "last-30-days", "lat": 3.994700401256078, "lon": 42.44100596380211, "alt_km": 306.23980038499667, "timestamp": "2025-12-21T22:41:40.168545+00:00", "meta": {"OBJECT_NAME": "STARLINK-35882", "OBJECT_ID": "2025-298P", "EPOCH": "2025-12-21T14:00:01.999872", "MEAN_MOTION": 15.8926365, "ECCENTRICITY": 0.0003505, "INCLINATION": 69.9982, "RA_OF_ASC_NODE": 224.9462, "ARG_OF_PERICENTER": 267.6717, "MEAN_ANOMALY": 356.0588, "EPHEMERIS_TYPE": 0, "CLASSIFICATION_TYPE": "U", "NORAD_CAT_ID": 67088, "ELEMENT_SET_NO": 999, "REV_AT_EPOCH": 240, "BSTAR": 0.00024323019, "MEAN_MOTION_DOT": 0.00069182, "MEAN_MOTION_DDOT": 5.60702e-06}, "tle": {"line1": "1 67088U 25298P   25355.58335648  .00069182  56070-5  24323-3 0  9993", "line2": "2 67088  69.9982 224.9462 0003505 267.6717 356.0588 15.89263650  2408"}}, "geometry": {"type": "Point", "coordinates": [42.44100596380211, 3.994700401256078]}}, {"type": "Feature", "properties": {"norad_id": 67089, "name": "STARLINK-35763", "group": "last-30-days", "lat": 2.066919484855279, "lon": 43.14293397798029, "alt_km": 306.2694388527525, "timestamp": "2025-12-21T22:41:40.168555+00:00", "meta": {"OBJECT_NAME": "STARLINK-35763", "OBJECT_ID": "2025-298Q", "EPOCH": "2025-12-21T14:00:01.999872", "MEAN_MOTION": 15.89306586, "ECCENTRICITY": 0.0003567, "INCLINATION": 69.998, "RA_OF_ASC_NODE": 224.9438, "ARG_OF_PERICENTER": 267.1395, "MEAN_ANOMALY": 358.5857, "EPHEMERIS_TYPE": 0, "CLASSIFICATION_TYPE": "U", "NORAD_CAT_ID": 67089, "ELEMENT_SET_NO": 999, "REV_AT_EPOCH": 240, "BSTAR": 0.00025326305, "MEAN_MOTION_DOT": 0.00072246, "MEAN_MOTION_DDOT": 5.761054e-06}, "tle": {"line1": "1 67089U 25298Q   25355.58335648  .00072246  57611-5  25326-3 0  9995", "line2": "2 67089  69.9980 224.9438 0003567 267.1395 358.5857 15.89306586  2407"}}, "geometry": {"type": "Point", "coordinates": [43.14293397798029, 2.066919484855279]}}]}